#aV2023  8 30  0  0  0.00000000     288 DD+AD WGS84 FIT  NGA
## 2277 259200.00000000   300.00000000 60186 0.0000000000000
+   31     1  2  3  4  5  6  7  8  9 10 11 12 13 14 15 16 17
+         18 19 20 21 22 23 24 25 26 27 29 30 31 32  0  0  0
+          0  0  0  0  0  0  0  0  0  0  0  0  0  0  0  0  0
+          0  0  0  0  0  0  0  0  0  0  0  0  0  0  0  0  0
+          0  0  0  0  0  0  0  0  0  0  0  0  0  0  0  0  0
++         2  2  2  2  2  2  2  2  2  2  2  2  2  2  2  2  2
++         2  2  2  2  2  2  2  2  2  2  2  2  2  2  0  0  0
++         0  0  0  0  0  0  0  0  0  0  0  0  0  0  0  0  0
++         0  0  0  0  0  0  0  0  0  0  0  0  0  0  0  0  0
++         0  0  0  0  0  0  0  0  0  0  0  0  0  0  0  0  0
%c cc cc ccc ccc cccc cccc cccc cccc ccccc ccccc ccccc ccccc
%c cc cc ccc ccc cccc cccc cccc cccc ccccc ccccc ccccc ccccc
%f  0.0000000  0.000000000  0.00000000000  0.000000000000000
%f  0.0000000  0.000000000  0.00000000000  0.000000000000000
%i    0    0    0    0      0      0      0      0         0
%i    0    0    0    0      0      0      0      0         0
/*      NGA, ST. LOUIS,MO.                                  
/*   EPHEMERIS COMPUTED FROM 2 DAYS OF DATA                 
/*   EPOCHA v8 SMOOTHER                                     
/*   G2139 IERS2010 SATIGS SATAPC                           
*  2023  8 30  7 20  0.00000000
P  1  13689.724624 -17350.970064  14130.271155    166.885402                    
V  1  -2623.546141  18516.581852  25009.349731     -0.011719                    
P  2  15015.865168 -10792.890623  19503.328886   -559.811088                    
V  2  -1999.410372  23685.915601  15205.119999      0.042867                    
P  3  21664.010252 -12792.368822  -8478.936744   -162.004568                    
V  3  10715.644441  -1179.657079  29775.006759      0.193362                    
P  4  11824.697336  -9578.122107 -21764.556186    140.907269                    
V  4  19655.599323  19436.035808   2005.675000      0.113354                    
P  5 -25375.615221   4192.024018  -7024.462071   -140.762150                    
V  5   7292.297090  -5215.842234 -30147.257716     -0.014779                    
P  6  -6907.093510 -19246.068160 -16838.711702    558.787738                    
V  6   6107.626962 -20627.849093  21082.720921     -0.059819                    
P  7   5205.900632 -25773.463321    707.013019     81.466511                    
V  7   3552.978424    427.966343 -31826.680734     -0.106649                    
P  8  19583.143255    119.003008  18048.508186   -139.682173                    
V  8  16428.159416  16060.903416 -17465.405967     -0.018731                    
P  9   2701.116371 -16789.080738 -20470.795561    -73.355007                    
V  9  20122.393166  16239.907941 -10752.666594      0.100337                    
P 10   7439.479289  13157.513366  22043.420588    -51.331244                    
V 10 -26150.557260   8422.826708   3516.002354     -0.015194                    
P 11 -13990.838874  -5924.510956 -21775.018786   -344.442356                    
V 11   7451.666725 -26637.568462   2410.246147     -0.178593                    
P 12 -24282.950447   9502.573374  -5098.240915   -418.871737                    
V 12  -6594.627857  -1156.529991  30999.027874     -0.044446                    
P 13 -20425.106222  -9893.069524  13780.834066    566.366517                    
V 13  -9862.579748 -14836.607281 -24715.021520      0.046115                    
P 14  -3485.071531 -15130.209584  21567.497153    169.556544                    
V 14  26391.203057  -7324.914624  -1039.696544      0.115109                    
P 15 -19111.137884   2971.439070  17829.835438     72.617338                    
V 15 -18420.160669 -14898.001762 -16571.605165      0.036364                    
P 16  24525.618534   2247.149853 -10820.678706   -461.389972                    
V 16 -12388.907525   4759.224965 -27446.358136      0.052369                    
P 17 -11257.020545 -21829.723374  10394.833700    723.313460                    
V 17  10272.556062   7573.506844  28319.148005      0.003857                    
P 18  -4405.220342  25965.610919   2593.746989   -400.146389                    
V 18  -3225.891145   2624.867557 -31942.447734     -0.129791                    
P 19 -16769.264019 -20744.403075   1722.538036    364.568366                    
V 19   3227.598026    366.287115  31688.245624      0.051560                    
P 20 -20692.725462  -2450.359178 -16322.351587    414.541226                    
V 20  17553.729639 -11561.565227 -20656.784283     -0.020072                    
P 21  15439.634259  -7341.061050  20609.065930    149.867597                    
V 21  -1937.686387  25212.330223  11597.822898     -0.006782                    
P 22 -10857.883449 -12639.281335  21086.340603    131.761102                    
V 22  24999.093112  -6358.328886   9535.805279     -0.074607                    
P 23  -6666.677595  16469.250659  19690.192031     61.564051                    
V 23 -23987.659147   7163.150482 -14282.274631      0.049616                    
P 24 -14496.759806  13436.327880  17166.995287   -304.838699                    
V 24    406.483063 -22909.350464  18306.629496     -0.111032                    
P 25 -13815.201117  16428.814352 -15783.157703    465.008959                    
V 25 -19304.976229   4072.202082  21831.127819      0.020803                    
P 26  17689.311194   7741.469225 -18500.544348    230.838739                    
V 26 -20974.993706  10099.786769 -15582.377682     -0.016587                    
P 27  22218.224377  11462.573423   9301.101495    -30.885309                    
V 27   7487.212803   9662.867704 -28603.700337     -0.065197                    
P 29  -3959.647423  16232.815834 -20668.376265   -608.627076                    
V 29 -18501.082571 -18457.596973 -11077.811864     -0.005794                    
P 30  -1731.434351 -24584.404106   9673.965815   -492.224312                    
V 30   6026.107833 -11185.931506 -27958.839931      0.032211                    
P 31  12401.580521  11176.963192 -20748.311616   -222.628877                    
V 31  -7213.286469  25056.697046   9684.459501     -0.005867                    
P 32  15799.884369  20469.768156   6693.396983   -549.475421                    
V 32  -7784.415252  -3632.031102  30097.279632     -0.064823                    
EOF
